MALLIGYONG-1            
1 58400U 23179A   24101.20722342  .00005644  00000+0  25136-3 0  9997
2 58400  97.4127 349.0749 0010887 133.8474 226.3663 15.21794744 21385
